P/2010 H4 (Scotti),e,2.3199,44.7558,179.5629,6.586863,0.0583024,0.26815292,207.8291,03/26.0/2020,2000,g 10.5,4.0
# From MPC 74637
P/2010 H5 (Scotti),e,14.0733,24.8113,175.3504,7.154048,0.0515082,0.15438417,187.1307,03/26.0/2020,2000,g 13.0,2.0
# From MPC 98558
P/2010 J3 (McMillan),e,13.2905,106.4059,157.5552,8.966515,0.0367087,0.72761997,128.3373,03/26.0/2020,2000,g 11.0,4.0
# From MPC 84315
P/2010 JC81 (WISE),e,38.6751,30.8359,12.4659,8.113644,0.0426462,0.77628510,139.2143,03/26.0/2020,2000,g  9.0,4.0
# From MPC 74248
C/2010 L5 (WISE),e,146.9710,206.4866,214.4316,8.025221,0.0433529,0.90160301,157.4844,03/26.0/2020,2000,g 18.0,4.0
# From MPC 74248
P/2010 T2 (PANSTARRS),e,7.9547,59.2865,354.1651,5.493449,0.0765484,0.32182373,247.7820,03/26.0/2020,2000,g 11.5,4.0
# From MPC 98558
P/2010 TO20 (LINEAR-Grauer),e,2.4796,43.3015,266.8327,5.826744,0.0700753,0.05394036,292.0297,03/26.0/2020,2000,g  9.0,4.0
# From MPC 82316
P/2010 U1 (Boattini),e,8.2139,280.7212,85.8618,6.514870,0.0592714,0.24740261,220.3671,03/26.0/2020,2000,g  9.5,4.0
# From MPC119994
C/2010 U3 (Boattini),e,55.5144,43.0495,88.0815,2922,0.0000062,0.99711002,0.0000,02/26.3027/2019,2000,g  1.0,4.0
# From MPC 79021
P/2010 UH55 (Spacewatch),e,8.0556,233.0738,225.1815,6.648273,0.0574964,0.56390621,187.5970,03/26.0/2020,2000,g 11.0,4.0
# From MPC 75009
P/2010 WK (LINEAR),e,11.3998,11.3094,41.0236,5.758212,0.0713301,0.68958396,247.2723,03/26.0/2020,2000,g 14.5,2.0
# From MPC 82317
P/2011 A2 (Scotti),e,4.4754,54.6728,94.5587,3.104553,0.1801795,0.49939619,249.0529,03/26.0/2020,2000,g 16.5,4.0
# From MPC 84021
P/2011 C2 (Gibbs),e,10.8867,12.1177,161.1113,7.413541,0.0488276,0.26934257,146.5551,03/26.0/2020,2000,g  9.0,4.0
# From MPC 79866
P/2011 FR143 (Lemmon),e,15.9964,190.9469,350.1698,6.853830,0.0549293,0.45157980,181.6654,03/26.0/2020,2000,g 14.0,2.0
# From MPC 82317
P/2011 JB15 (Spacewatch-Boattini),e,19.1457,153.6172,110.9038,7.350773,0.0494544,0.31851805,147.5666,03/26.0/2020,2000,g  9.0,4.0
# From MPEC 2020-AA5
C/2011 KP36 (Spacewatch),e,18.9824,173.3265,180.6020,38.72630,0.0040897,0.87401378,5.7210,03/26.0/2020,2000,g  4.5,4.0
# From MPC 87913
P/2011 N1 (ASH),e,35.7042,77.6103,330.3596,6.251620,0.0630544,0.54326100,180.8372,03/26.0/2020,2000,g 11.5,4.0
# From MPC 75714
P/2011 NO1 (Elenin),e,15.2488,295.7940,263.8467,5.521875,0.0759581,0.77521461,254.3731,03/26.0/2020,2000,g 15.0,4.0
# From MPC 82318
P/2011 P1 (McNaught),e,5.6550,4.2467,348.8638,7.472488,0.0482510,0.32629633,170.8908,03/26.0/2020,2000,g  9.0,4.0
# From MPC 77806
P/2011 Q3 (McNaught),e,6.0554,32.0244,310.9559,4.970797,0.0889334,0.53229319,282.0327,03/26.0/2020,2000,g 13.5,4.0
# From MPC 90269
P/2011 R3 (Novichonok-Gerke),e,19.2338,189.8116,224.7737,4.783991,0.0941930,0.27124739,273.6895,03/26.0/2020,2000,g 11.0,4.0
# From MPC 98558
P/2011 S1 (Gibbs),e,2.6832,218.9260,192.6381,8.592533,0.0391311,0.19982168,80.3030,03/26.0/2020,2000,g  8.0,4.0
# From MPC115880
P/2011 U2 (Bressi),e,10.0178,263.7405,150.6972,4.939598,0.0897773,0.13010368,251.6766,03/26.0/2020,2000,g 10.0,4.0
# From MPC 79022
P/2011 UA134 (Spacewatch-PANSTARRS),e,10.4480,40.4539,32.4881,5.600989,0.0743545,0.62935439,226.7735,03/26.0/2020,2000,g 17.5,4.0
# From MPC 77406
P/2011 V1 (Boattini),e,7.3785,46.8634,269.2088,3.853738,0.1302809,0.55058481,70.4792,03/26.0/2020,2000,g 15.5,4.0
# From MPC 82718
P/2011 W1 (PANSTARRS),e,3.7186,161.7901,282.7284,4.659561,0.0979911,0.28681274,292.9905,03/26.0/2020,2000,g 11.5,4.0
# From MPC 79342
P/2011 Y2 (Boattini),e,6.3718,309.3653,131.9673,6.239484,0.0632384,0.70918233,185.8921,03/26.0/2020,2000,g 15.0,4.0
# From MPC 94669
P/2012 B1 (PANSTARRS),e,7.6183,36.1884,162.6016,6.525418,0.0591278,0.41035076,144.2002,03/26.0/2020,2000,g  9.0,4.0
# From MPC 78590
P/2012 C3 (PANSTARRS),e,9.0920,135.3677,344.9542,9.748681,0.0323806,0.63011148,359.9758,10/06.0/2011,2000,g 13.0,4.0
# From MPC 84931
P/2012 F2 (PANSTARRS),e,14.7330,227.0738,33.2122,6.326932,0.0619319,0.54308176,157.2292,03/26.0/2020,2000,g 12.0,4.0
# From MPC107683
C/2012 F3 (PANSTARRS),h,04/07.6430/2015,11.3342,164.5391,104.2677,1.004451,3.466219,2000,6.5,4.0
# From MPC 79344
P/2012 G1 (PANSTARRS),e,11.6925,282.5440,286.1149,4.172871,0.1156250,0.38072240,359.9500,06/01.0/2012,2000,g 15.0,4.0
# From MPC 80898
P/2012 K3 (Gibbs),e,13.1947,125.8104,172.1114,3.623830,0.1428737,0.42349528,31.6545,03/26.0/2020,2000,g 15.0,4.0
# From MPC112389
C/2012 LP26 (Palomar),h,08/18.5570/2015,25.3467,153.9372,145.3136,1.003319,6.542452,2000,6.5,4.0
# From MPC 88326
P/2012 NJ (La Sagra),e,84.6308,315.5651,338.3068,8.456408,0.0400798,0.84752593,113.9645,03/26.0/2020,2000,g 14.5,4.0
# From MPC 81470
P/2012 O1 (McNaught),e,7.4335,91.9851,238.2031,3.539396,0.1480166,0.59445434,57.6753,03/26.0/2020,2000,g 17.5,4.0
# From MPC 80899
P/2012 O2 (McNaught),e,24.4860,120.6806,183.3693,3.621666,0.1430018,0.53281495,46.4644,03/26.0/2020,2000,g 17.0,4.0
# From MPC 82720
P/2012 O3 (McNaught),e,16.6103,336.4036,344.6822,4.576460,0.1006722,0.64677029,279.9819,03/26.0/2020,2000,g 16.5,4.0
# From MPC 82720
P/2012 S2 (La Sagra),e,8.6875,51.1928,312.5160,4.409319,0.1064503,0.69105508,297.7371,03/26.0/2020,2000,g 17.0,4.0
# From MPC 82720
P/2012 SB6 (Lemmon),e,10.9289,8.2099,14.3942,3.825148,0.1317443,0.40476657,348.7384,03/26.0/2020,2000,g 14.0,4.0
# From MPC 82320
P/2012 T2 (PANSTARRS),e,12.5546,73.7361,310.4640,5.739912,0.0716715,0.16027752,181.5610,03/26.0/2020,2000,g 10.0,4.0
# From MPC 80900
P/2012 T3 (PANSTARRS),e,9.5681,114.4068,195.4212,6.153402,0.0645700,0.61701878,186.4404,03/26.0/2020,2000,g 15.0,4.0
# From MPC 87914
P/2012 TK8 (Tenagra),e,6.3406,288.9710,127.7201,4.132703,0.1173148,0.27432783,292.2058,03/26.0/2020,2000,g 13.0,4.0
# From MPC 82720
P/2012 U2 (PANSTARRS),e,10.7446,185.2577,228.3771,7.145652,0.0515990,0.49736298,139.0828,03/26.0/2020,2000,g 12.5,4.0
# From MPC 84024
P/2012 US27 (Siding Spring),e,39.3221,49.1679,0.8408,5.165881,0.0839436,0.64723934,219.6233,03/26.0/2020,2000,g 13.5,4.0
# From MPC 82721
P/2012 WA34 (Lemmon-PANSTARRS),e,6.1232,94.5043,352.7874,4.773167,0.0945136,0.34032023,247.1857,03/26.0/2020,2000,g 13.5,4.0
# From MPC 84024
P/2013 A2 (Scotti),e,3.3615,355.8191,134.5641,4.012612,0.1226206,0.45432494,319.9206,03/26.0/2020,2000,g 15.5,4.0
# From MPC 82721
P/2013 AL76 (Catalina),e,144.7906,145.9394,27.1484,6.498556,0.0594948,0.68607687,158.2661,03/26.0/2020,2000,g 16.0,4.0
# From MPC115880
C/2013 C2 (Tenagra),e,21.3377,247.5294,309.5273,16.01876,0.0153731,0.42842550,25.4458,03/26.0/2020,2000,g  4.0,4.0
# From MPC 88695
P/2013 EW90 (Tenagra),e,31.7857,160.3022,346.3793,4.116353,0.1180145,0.19498133,321.4137,03/26.0/2020,2000,g 12.0,4.0
# From MPC 91612
P/2013 G1 (Kowalski),e,5.4706,221.4255,51.3187,6.884734,0.0545599,0.51346092,125.1905,03/26.0/2020,2000,g 11.0,4.0
# From MPC 84025
P/2013 G4 (PANSTARRS),e,5.9161,339.6557,214.7288,4.438628,0.1053977,0.40983962,274.0572,03/26.0/2020,2000,g 15.0,4.0
# From MPC 91613
P/2013 J2 (McNaught),e,15.5354,289.4283,37.7114,6.224091,0.0634732,0.65720408,152.6035,03/26.0/2020,2000,g 13.0,4.0
# From MPC 87066
P/2013 J4 (PANSTARRS),e,5.0352,84.0011,118.7706,2.475100,0.2531133,0.23099371,359.9443,11/04.0/2013,2000,g 14.0,4.0
# From MPC 86229
P/2013 N3 (PANSTARRS),e,2.1724,17.5250,323.8158,7.391084,0.0490503,0.59271744,109.4990,03/26.0/2020,2000,g 13.0,4.0
# From MPC 85834
P/2013 N5 (PANSTARRS),e,23.3992,187.1780,176.8803,6.800935,0.0555714,0.73136867,136.7179,03/26.0/2020,2000,g 17.0,4.0
# From MPC 87479
P/2013 O2 (PANSTARRS),e,13.3153,207.1806,214.1594,3.792119,0.1334692,0.44685011,303.6106,03/26.0/2020,2000,g 14.0,4.0
# From MPC 85834
P/2013 P1 (PANSTARRS),e,18.7160,160.6514,138.0235,8.564777,0.0393215,0.60616152,101.5217,03/26.0/2020,2000,g 12.0,4.0
# From MPC 94671
P/2013 R3 (Catalina-PANSTARRS),e,0.8653,342.0051,11.1488,3.034084,0.1864931,0.27487919,88.6655,03/26.0/2020,2000,g 14.0,4.0
# From unp
P/2013 R3-A (Catalina-PANSTARRS),e,0.8647,341.9720,11.1878,3.033943,0.1865061,0.27484851,88.6946,03/26.0/2020,2000,g  9.0,4.0
# From MPEC 2015-M77
P/2013 R3-B (Catalina-PANSTARRS),e,0.8659,342.0278,11.1227,3.034160,0.1864860,0.27489429,88.6500,03/26.0/2020,2000,g  9.0,4.0
# From MPC 85835
P/2013 T1 (PANSTARRS),e,24.2579,10.0996,346.0622,5.863190,0.0694230,0.62312880,168.7108,03/26.0/2020,2000,g 16.5,4.0
# From MPC 86643
P/2013 T2 (Schwartz),e,9.4563,0.8249,345.4502,3.487953,0.1513032,0.50103420,17.6211,03/26.0/2020,2000,g 16.0,4.0
# From MPC 88696
P/2013 TL117 (Lemmon),e,9.3649,3.3153,112.2518,3.609036,0.1437531,0.68913690,320.7270,03/26.0/2020,2000,g 17.5,4.0
# From MPC110080
C/2013 US10 (Catalina),h,11/16.4884/2015,148.7973,186.3411,340.5672,1.000611,0.822762,2000,4.4,4.0
# From MPC111767
C/2013 V4 (Catalina),e,67.8742,55.6209,40.3520,3996,0.0000039,0.99870315,0.0000,10/05.7623/2015,2000,g  6.0,4.0
# From MPC 91613
P/2013 W1 (PANSTARRS),e,4.6954,117.8488,1.3051,3.490525,0.1511360,0.59280848,334.5601,03/26.0/2020,2000,g 17.5,4.0
# From MPC111767
C/2013 X1 (PANSTARRS),h,04/19.6187/2016,163.1903,131.5891,165.1320,1.000358,1.320126,2000,10.5,2.0
# From MPC101095
P/2013 YG46 (Spacewatch),e,7.8565,48.8860,242.4529,3.276757,0.1661643,0.45486287,191.2073,03/26.0/2020,2000,g 10.0,4.0
# From MPC 89728
P/2014 A2 (Hill),e,24.5510,106.6264,356.2939,5.925096,0.0683378,0.64594891,160.5870,03/26.0/2020,2000,g 15.0,4.0
# From MPC 92981
P/2014 A3 (PANSTARRS),e,13.6821,230.3267,212.4181,4.637484,0.0986917,0.24552299,249.7698,03/26.0/2020,2000,g 12.0,4.0
# From MPC108592
C/2014 A4 (SONEAR),e,121.3754,29.6845,356.5942,3053,0.0000058,0.99863271,0.0000,09/04.1829/2015,2000,g  6.0,4.0
# From MPC 96865
C/2014 AA52 (Catalina),h,02/26.8732/2015,105.1247,330.3302,292.1494,1.000070,2.001186,2000,10.0,4.0
# From MPC119994
C/2014 B1 (Schwartz),h,09/10.0241/2017,28.3987,161.4040,345.8308,1.000034,9.556112,2000,4.0,4.0
# From MPC102095
P/2014 C1 (TOTAS),e,2.6821,167.7959,24.1500,3.043647,0.1856148,0.44699737,64.5368,03/26.0/2020,2000,g 15.5,4.0
# From MPC 91614
